{"type": "FeatureCollection", "features": [ {"type": "Feature", "properties": {"norad_id": 37834, "name": "INTELSAT 18 (IS-18)", "group": "intelsat", "lat": -0.0009197830801519463, "lon": 147.12587313557603, "alt_km": 35789.6763450965, "timestamp": "2025-12-06T16:45:42.394251+00:00", "meta": {"OBJECT_NAME": "INTELSAT 18 (IS-18)", "OBJECT_ID": "2011-056A", "EPOCH": "2025-12-06T05:57:41.351328", "MEAN_MOTION": 1.00271577, "ECCENTRICITY": 0.00021436, "INCLINATION": 0.0152, "RA_OF_ASC_NODE": 319.7729, "ARG_OF_PERICENTER": 300.5326, "MEAN_ANOMALY": 84.4065, "EPHEMERIS_TYPE": 0, "CLASSIFICATION_TYPE": "U", "NORAD_CAT_ID": 37834, "ELEMENT_SET_NO": 999, "REV_AT_EPOCH": 5187, "BSTAR": 0, "MEAN_MOTION_DOT": 6.1e-07, "MEAN_MOTION_DDOT": 0}, "tle": {"line1": "1 37834U 11056A   25340.24839527  .00000061  00000+0  00000+0 0  9997", "line2": "2 37834   0.0152 319.7729 0002143 300.5326  84.4065  1.00271577 51870"}}, "geometry": {"type": "Point", "coordinates": [147.12587313557603, -0.0009197830801519463]}}, {"type": "Feature", "properties": {"norad_id": 38098, "name": "INTELSAT 22 (IS-22)", "group": "intelsat", "lat": 0.013183397746433552, "lon": 39.27171307194828, "alt_km": 35791.383889423196, "timestamp": "2025-12-06T16:45:42.394264+00:00", "meta": {"OBJECT_NAME": "INTELSAT 22 (IS-22)", "OBJECT_ID": "2012-011A", "EPOCH": "2025-12-06T03:44:06.083808", "MEAN_MOTION": 1.00271075, "ECCENTRICITY": 0.00017603, "INCLINATION": 0.0095, "RA_OF_ASC_NODE": 36.761, "ARG_OF_PERICENTER": 229.3287, "MEAN_ANOMALY": 297.2433, "EPHEMERIS_TYPE": 0, "CLASSIFICATION_TYPE": "U", "NORAD_CAT_ID": 38098, "ELEMENT_SET_NO": 999, "REV_AT_EPOCH": 525, "BSTAR": 0, "MEAN_MOTION_DOT": -5e-07, "MEAN_MOTION_DDOT": 0}, "tle": {"line1": "1 38098U 12011A   25340.15562597 -.00000050  00000+0  00000+0 0  9991", "line2": "2 38098   0.0095  36.7610 0001760 229.3287 297.2433  1.00271075  5259"}}, "geometry": {"type": "Point", "coordinates": [39.27171307194828, 0.013183397746433552]}}, {"type": "Feature", "properties": {"norad_id": 38356, "name": "INTELSAT 19 (IS-19)", "group": "intelsat", "lat": 0.01916735599418865, "lon": 133.12081792004167, "alt_km": 35795.976027700424, "timestamp": "2025-12-06T16:45:42.394291+00:00", "meta": {"OBJECT_NAME": "INTELSAT 19 (IS-19)", "OBJECT_ID": "2012-030A", "EPOCH": "2025-12-06T07:18:38.626272", "MEAN_MOTION": 1.00270189, "ECCENTRICITY": 0.00035358, "INCLINATION": 0.0106, "RA_OF_ASC_NODE": 354.9816, "ARG_OF_PERICENTER": 267.3343, "MEAN_ANOMALY": 88.696, "EPHEMERIS_TYPE": 0, "CLASSIFICATION_TYPE": "U", "NORAD_CAT_ID": 38356, "ELEMENT_SET_NO": 999, "REV_AT_EPOCH": 4851, "BSTAR": 0, "MEAN_MOTION_DOT": -4.9e-07, "MEAN_MOTION_DDOT": 0}, "tle": {"line1": "1 38356U 12030A   25340.30461373 -.00000049  00000+0  00000+0 0  9994", "line2": "2 38356   0.0106 354.9816 0003535 267.3343  88.6960  1.00270189 48517"}}, "geometry": {"type": "Point", "coordinates": [133.12081792004167, 0.01916735599418865]}}, {"type": "Feature", "properties": {"norad_id": 38740, "name": "INTELSAT 20 (IS-20)", "group": "intelsat", "lat": 0.02219805460664866, "lon": 35.625335034354954, "alt_km": 35798.56302422608, "timestamp": "2025-12-06T16:45:42.394305+00:00", "meta": {"OBJECT_NAME": "INTELSAT 20 (IS-20)", "OBJECT_ID": "2012-043A", "EPOCH": "2025-12-06T02:00:23.517792", "MEAN_MOTION": 1.00270015, "ECCENTRICITY": 0.000316, "INCLINATION": 0.0153, "RA_OF_ASC_NODE": 13.4698, "ARG_OF_PERICENTER": 176.6385, "MEAN_ANOMALY": 343.6126, "EPHEMERIS_TYPE": 0, "CLASSIFICATION_TYPE": "U", "NORAD_CAT_ID": 38740, "ELEMENT_SET_NO": 999, "REV_AT_EPOCH": 4881, "BSTAR": 0, "MEAN_MOTION_DOT": 0, "MEAN_MOTION_DDOT": 0}, "tle": {"line1": "1 38740U 12043A   25340.08360553  .00000000  00000+0  00000+0 0  9994", "line2": "2 38740   0.0153  13.4698 0003160 176.6385 343.6126  1.00270015 48812"}}, "geometry": {"type": "Point", "coordinates": [35.625335034354954, 0.02219805460664866]}}, {"type": "Feature", "properties": {"norad_id": 38749, "name": "INTELSAT 21 (IS-21)", "group": "intelsat", "lat": -0.03894850114396439, "lon": -90.83678458454398, "alt_km": 35777.13876878932, "timestamp": "2025-12-06T16:45:42.394318+00:00", "meta": {"OBJECT_NAME": "INTELSAT 21 (IS-21)", "OBJECT_ID": "2012-045A", "EPOCH": "2025-12-06T07:38:07.595808", "MEAN_MOTION": 1.00271311, "ECCENTRICITY": 0.0002271, "INCLINATION": 0.0168, "RA_OF_ASC_NODE": 337.0395, "ARG_OF_PERICENTER": 273.5326, "MEAN_ANOMALY": 241.3249, "EPHEMERIS_TYPE": 0, "CLASSIFICATION_TYPE": "U", "NORAD_CAT_ID": 38749, "ELEMENT_SET_NO": 999, "REV_AT_EPOCH": 4859, "BSTAR": 0, "MEAN_MOTION_DOT": -2.77e-06, "MEAN_MOTION_DDOT": 0}, "tle": {"line1": "1 38749U 12045A   25340.31814347 -.00000277  00000+0  00000+0 0  9993", "line2": "2 38749   0.0168 337.0395 0002271 273.5326 241.3249  1.00271311 48595"}}, "geometry": {"type": "Point", "coordinates": [-90.83678458454398, -0.03894850114396439]}}, {"type": "Feature", "properties": {"norad_id": 38867, "name": "INTELSAT 23 (IS-23)", "group": "intelsat", "lat": -0.023144273082186848, "lon": -85.86039887488022, "alt_km": 35782.09870078449, "timestamp": "2025-12-06T16:45:42.394330+00:00", "meta": {"OBJECT_NAME": "INTELSAT 23 (IS-23)", "OBJECT_ID": "2012-057A", "EPOCH": "2025-12-06T06:33:52.884000", "MEAN_MOTION": 1.00268386, "ECCENTRICITY": 0.00017462, "INCLINATION": 0.0472, "RA_OF_ASC_NODE": 98.8461, "ARG_OF_PERICENTER": 127.5347, "MEAN_ANOMALY": 254.3852, "EPHEMERIS_TYPE": 0, "CLASSIFICATION_TYPE": "U", "NORAD_CAT_ID": 38867, "ELEMENT_SET_NO": 999, "REV_AT_EPOCH": 4802, "BSTAR": 0, "MEAN_MOTION_DOT": -2.77e-06, "MEAN_MOTION_DDOT": 0}, "tle": {"line1": "1 38867U 12057A   25340.27352875 -.00000277  00000+0  00000+0 0  9995", "line2": "2 38867   0.0472  98.8461 0001746 127.5347 254.3852  1.00268386 48027"}}, "geometry": {"type": "Point", "coordinates": [-85.86039887488022, -0.023144273082186848]}}, {"type": "Feature", "properties": {"norad_id": 39360, "name": "FM-6", "group": "intelsat", "lat": 0.003246402006208928, "lon": -148.97453328820822, "alt_km": 35776.51204568846, "timestamp": "2025-12-06T16:45:42.394342+00:00", "meta": {"OBJECT_NAME": "FM-6", "OBJECT_ID": "2013-058A", "EPOCH": "2025-12-06T04:26:31.851168", "MEAN_MOTION": 1.00271891, "ECCENTRICITY": 0.00028794, "INCLINATION": 0.0115, "RA_OF_ASC_NODE": 104.5066, "ARG_OF_PERICENTER": 68.4513, "MEAN_ANOMALY": 212.7582, "EPHEMERIS_TYPE": 0, "CLASSIFICATION_TYPE": "U", "NORAD_CAT_ID": 39360, "ELEMENT_SET_NO": 999, "REV_AT_EPOCH": 4413, "BSTAR": 0, "MEAN_MOTION_DOT": -9e-08, "MEAN_MOTION_DDOT": 0}, "tle": {"line1": "1 39360U 13058A   25340.18509087 -.00000009  00000+0  00000+0 0  9998", "line2": "2 39360   0.0115 104.5066 0002879  68.4513 212.7582  1.00271891 44133"}}, "geometry": {"type": "Point", "coordinates": [-148.97453328820822, 0.003246402006208928]}}, {"type": "Feature", "properties": {"norad_id": 40271, "name": "INTELSAT 30 (IS-30)", "group": "intelsat", "lat": -0.026779888001267557, "lon": -127.90274169098238, "alt_km": 35790.46794143512, "timestamp": "2025-12-06T16:45:42.394354+00:00", "meta": {"OBJECT_NAME": "INTELSAT 30 (IS-30)", "OBJECT_ID": "2014-062A", "EPOCH": "2025-12-06T00:08:38.725728", "MEAN_MOTION": 1.00269726, "ECCENTRICITY": 0.00010927, "INCLINATION": 0.015, "RA_OF_ASC_NODE": 19.3668, "ARG_OF_PERICENTER": 68.0751, "MEAN_ANOMALY": 254.7165, "EPHEMERIS_TYPE": 0, "CLASSIFICATION_TYPE": "U", "NORAD_CAT_ID": 40271, "ELEMENT_SET_NO": 999, "REV_AT_EPOCH": 484, "BSTAR": 0, "MEAN_MOTION_DOT": -1.42e-06, "MEAN_MOTION_DDOT": 0}, "tle": {"line1": "1 40271U 14062A   25340.00600377 -.00000142  00000+0  00000+0 0  9990", "line2": "2 40271   0.0150  19.3668 0001092  68.0751 254.7165  1.00269726  4843"}}, "geometry": {"type": "Point", "coordinates": [-127.90274169098238, -0.026779888001267557]}}, {"type": "Feature", "properties": {"norad_id": 40333, "name": "DIRECTV 14", "group": "intelsat", "lat": -0.041381199411336014, "lon": -132.0691615906219, "alt_km": 35784.99109862667, "timestamp": "2025-12-06T16:45:42.394366+00:00", "meta": {"OBJECT_NAME": "DIRECTV 14", "OBJECT_ID": "2014-078B", "EPOCH": "2025-12-06T05:36:16.605792", "MEAN_MOTION": 1.00270123, "ECCENTRICITY": 3.784e-05, "INCLINATION": 0.0178, "RA_OF_ASC_NODE": 334.1138, "ARG_OF_PERICENTER": 244.1882, "MEAN_ANOMALY": 201.8264, "EPHEMERIS_TYPE": 0, "CLASSIFICATION_TYPE": "U", "NORAD_CAT_ID": 40333, "ELEMENT_SET_NO": 999, "REV_AT_EPOCH": 4010, "BSTAR": 0, "MEAN_MOTION_DOT": -1.17e-06, "MEAN_MOTION_DDOT": 0}, "tle": {"line1": "1 40333U 14078B   25340.23352553 -.00000117  00000+0  00000+0 0  9993", "line2": "2 40333   0.0178 334.1138 0000378 244.1882 201.8264  1.00270123 40105"}}, "geometry": {"type": "Point", "coordinates": [-132.0691615906219, -0.041381199411336014]}}, {"type": "Feature", "properties": {"norad_id": 40663, "name": "DIRECTV 15", "group": "intelsat", "lat": -0.0028346444744757684, "lon": -135.716874169069, "alt_km": 35784.5072034838, "timestamp": "2025-12-06T16:45:42.394378+00:00", "meta": {"OBJECT_NAME": "DIRECTV 15", "OBJECT_ID": "2015-026A", "EPOCH": "2025-12-06T00:16:38.669952", "MEAN_MOTION": 1.00270129, "ECCENTRICITY": 4.885e-05, "INCLINATION": 0.0402, "RA_OF_ASC_NODE": 82.5652, "ARG_OF_PERICENTER": 148.8434, "MEAN_ANOMALY": 104.9477, "EPHEMERIS_TYPE": 0, "CLASSIFICATION_TYPE": "U", "NORAD_CAT_ID": 40663, "ELEMENT_SET_NO": 999, "REV_AT_EPOCH": 3852, "BSTAR": 0, "MEAN_MOTION_DOT": -9.4e-07, "MEAN_MOTION_DDOT": 0}, "tle": {"line1": "1 40663U 15026A   25340.01155868 -.00000094  00000+0  00000+0 0  9993", "line2": "2 40663   0.0402  82.5652 0000488 148.8434 104.9477  1.00270129 38529"}}, "geometry": {"type": "Point", "coordinates": [-135.716874169069, -0.0028346444744757684]}}]}